STARLINK-32148          
1 60263U 24131J   26068.26774293  .00000459  00000+0  27625-4 0  9993
2 60263  53.1611  54.4138 0001240  91.6952 268.4191 15.30189069 91700
TOMORROW-S4             
1 62386U 24247K   26068.53305366  .00012677  00000+0  46927-3 0  9990
2 62386  44.9818 117.9996 0004434 210.4078 149.6548 15.27717249 67702
